NORAD_CAT_ID,OBJECT_NAME,OBJECT_TYPE,EPOCH,MEAN_MOTION,ECCENTRICITY,INCLINATION,RA_OF_ASC_NODE,ARG_OF_PERICENTER,MEAN_ANOMALY,BSTAR,MEAN_MOTION_DOT,MEAN_MOTION_DDOT,TLE_LINE0,TLE_LINE1,TLE_LINE2,SEMIMAJOR_AXIS,PERIOD,APOGEE,PERIGEE,DECAYED
51120.0,STARLINK-3398,PAYLOAD,2022-03-08 22:00:00,15.73297281,0.000312,53.2167,32.6236,14.2546,235.2951,-0.00061453,-0.00086372,0.0,0 STARLINK-3398,1 51120U 22005S   22067.91667824 -.00086372  00000-0 -61453-3 0  9998,2 51120  53.2167  32.6236 0003120  14.2546 235.2951 15.73297281  3718,6727.618,91.528,351.582,347.384,0.0
51120.0,STARLINK-3398,PAYLOAD,2022-03-09 06:00:00,15.7321531,0.0003334,53.2166,30.976,12.2608,326.3046,-0.00048578,-0.00068316,0.0,0 STARLINK-3398,1 51120U 22005S   22068.25001157 -.00068316  00000-0 -48578-3 0  9998,2 51120  53.2166  30.9760 0003334  12.2608 326.3046 15.73215310  9068,6727.852,91.532,351.96,347.473,0.0
51120.0,STARLINK-3398,PAYLOAD,2022-03-09 14:00:01,15.73180453,0.0003199,53.2167,29.3252,9.2491,58.2359,0.00018592,0.00025533,0.0,0 STARLINK-3398,1 51120U 22005S   22068.58334491  .00025533  00000-0  18592-3 0  9999,2 51120  53.2167  29.3252 0003199   9.2491  58.2359 15.73180453  9115,6727.951,91.534,351.968,347.664,0.0
51120.0,STARLINK-3398,PAYLOAD,2022-03-09 22:00:01,15.73204586,0.0003092,53.2171,27.6749,12.1926,144.2586,0.00040338,0.00056392,0.0,0 STARLINK-3398,1 51120U 22005S   22068.91668981  .00056392  00000-0  40338-3 0  9990,2 51120  53.2171  27.6749 0003092  12.1926 144.2586 15.73204586  3699,6727.882,91.533,351.827,347.667,0.0
51120.0,STARLINK-3398,PAYLOAD,2022-03-10 14:00:01,15.73239248,0.0003178,53.2167,24.3765,10.492,323.815,-0.00050921,-0.00071623,0.0,0 STARLINK-3398,1 51120U 22005S   22069.58334491 -.00071623  00000-0 -50921-3 0  9995,2 51120  53.2167  24.3765 0003178  10.4920 323.8150 15.73239248  3691,6727.783,91.531,351.786,347.51,0.0
51120.0,STARLINK-3398,PAYLOAD,2022-03-10 20:00:01,15.73172595,0.0003084,53.2167,23.1385,14.9456,296.0826,0.00050528,0.0007082,0.0,0 STARLINK-3398,1 51120U 22005S   22069.83334491  .00070820  00000-0  50528-3 0  9992,2 51120  53.2167  23.1385 0003084  14.9456 296.0826 15.73172595  9312,6727.973000000001,91.535,351.913,347.76300000000015,0.0
51120.0,STARLINK-3398,PAYLOAD,2022-03-10 22:00:01,15.73193414,0.0003103,53.2168,22.7266,15.6607,47.6562,0.00035234,0.00049112,0.0,0 STARLINK-3398,1 51120U 22005S   22069.91668981  .00049112  00000-0  35234-3 0  9992,2 51120  53.2168  22.7266 0003103  15.6607  47.6562 15.73193414  3701,6727.9140000000025,91.534,351.867,347.691,0.0
51120.0,STARLINK-3398,PAYLOAD,2022-03-11 14:00:01,15.73275181,0.0003111,53.2168,19.4278,13.0581,228.1429,-0.00030233,-0.00042985,0.0,0 STARLINK-3398,1 51120U 22005S   22070.58334491 -.00042985  00000-0 -30233-3 0  9990,2 51120  53.2168  19.4278 0003111  13.0581 228.1429 15.73275181  3686,6727.681,91.529,351.639,347.45300000000015,0.0
51120.0,STARLINK-3398,PAYLOAD,2022-03-11 22:00:00,15.73271611,0.0003034,53.2171,17.7777,14.434,315.7568,-0.00044683,-0.00063073,0.0,0 STARLINK-3398,1 51120U 22005S   22070.91667824 -.00063073  00000-0 -44683-3 0  9991,2 51120  53.2171  17.7777 0003034  14.4340 315.7568 15.73271611  9482,6727.691,91.529,351.597,347.515,0.0
51120.0,STARLINK-3398,PAYLOAD,2022-03-12 14:00:01,15.73193358,0.000297,53.2169,14.4787,6.4933,141.6323,-0.00024858,-0.00035361,0.0,0 STARLINK-3398,1 51120U 22005S   22071.58334491 -.00035361  00000-0 -24858-3 0  9997,2 51120  53.2169  14.4787 0002970   6.4933 141.6323 15.73193358  3694,6727.9140000000025,91.534,351.777,347.781,0.0
51120.0,STARLINK-3398,PAYLOAD,2022-03-12 22:00:00,15.73212345,0.0002937,53.2172,12.8294,15.3719,221.6671,-0.00038836,-0.00054815,0.0,0 STARLINK-3398,1 51120U 22005S   22071.91667824 -.00054815  00000-0 -38836-3 0  9999,2 51120  53.2172  12.8294 0002937  15.3719 221.6671 15.73212345  9641,6727.86,91.532,351.701,347.749,0.0
51120.0,STARLINK-3398,PAYLOAD,2022-03-13 14:00:01,15.73143548,0.000293,53.2169,9.5304,8.4699,46.3423,7.8212e-05,0.00010343,0.0,0 STARLINK-3398,1 51120U 22005S   22072.58334491  .00010343  00000-0  78212-4 0  9993,2 51120  53.2169   9.5304 0002930   8.4699  46.3423 15.73143548  3712,6728.056,91.536,351.892,347.95,0.0
51120.0,STARLINK-3398,PAYLOAD,2022-03-13 20:00:01,15.73145986,0.0002905,53.2172,8.2928,10.1003,21.3557,0.00048043,0.00067199,0.0,0 STARLINK-3398,1 51120U 22005S   22072.83334491  .00067199  00000-0  48043-3 0  9990,2 51120  53.2172   8.2928 0002905  10.1003  21.3557 15.73145986  9787,6728.049,91.536,351.869,347.96,0.0
51120.0,STARLINK-3398,PAYLOAD,2022-03-13 22:00:01,15.73171125,0.0002947,53.2173,7.8809,10.4521,133.2833,0.00023705,0.00032741,0.0,0 STARLINK-3398,1 51120U 22005S   22072.91668981  .00032741  00000-0  23705-3 0  9996,2 51120  53.2173   7.8809 0002947  10.4521 133.2833 15.73171125  3693,6727.977,91.535,351.825,347.86,0.0
51120.0,STARLINK-3398,PAYLOAD,2022-03-14 04:00:00,15.73214025,0.0003167,53.2173,6.6454,11.4728,108.8992,0.00046147,0.00064694,0.0,0 STARLINK-3398,1 51120U 22005S   22073.16667824  .00064694  00000-0  46147-3 0  9996,2 51120  53.2173   6.6454 0003167  11.4728 108.8992 15.73214025  9834,6727.855,91.532,351.851,347.589,0.0
51120.0,STARLINK-3398,PAYLOAD,2022-03-14 14:00:01,15.73228501,0.0002965,53.2171,4.5816,15.1522,306.5449,0.00072853,0.00103026,0.0,0 STARLINK-3398,1 51120U 22005S   22073.58335648  .00103026  00000-0  72853-3 0  9994,2 51120  53.2171   4.5816 0002965  15.1522 306.5449 15.73228501  3695,6727.814,91.532,351.6740000000001,347.684,0.0
51120.0,STARLINK-3398,PAYLOAD,2022-03-14 20:00:01,15.73223814,0.0002933,53.2172,3.3446,14.4024,283.8518,-0.00016691,-0.0002401,0.0,0 STARLINK-3398,1 51120U 22005S   22073.83334491 -.00024010  00000-0 -16691-3 0  9992,2 51120  53.2172   3.3446 0002933  14.4024 283.8518 15.73223814  9946,6727.8269999999975,91.532,351.666,347.719,0.0
51120.0,STARLINK-3398,PAYLOAD,2022-03-15 02:00:01,15.73183363,0.0003179,53.2169,2.1092,15.7042,259.2681,0.00042669,0.00059657,0.0,0 STARLINK-3398,1 51120U 22005S   22074.08334491  .00059657  00000-0  42669-3 0  9997,2 51120  53.2169   2.1092 0003179  15.7042 259.2681 15.73183363  9989,6727.943,91.534,351.946,347.6690000000001,0.0
51120.0,STARLINK-3398,PAYLOAD,2022-03-15 20:00:01,15.73183898,0.0002978,53.2175,358.3963,17.3499,187.6824,-0.00028359,-0.00040215,0.0,0 STARLINK-3398,1 51120U 22005S   22074.83334491 -.00040215  00000-0 -28359-3 0  9992,2 51120  53.2175 358.3963 0002978  17.3499 187.6824 15.73183898 10101,6727.941,91.534,351.81,347.80300000000005,0.0
51120.0,STARLINK-3398,PAYLOAD,2022-03-15 22:00:00,15.7317161,0.0003058,53.2174,357.9845,17.7271,299.5333,-0.00019964,-0.00028519,0.0,0 STARLINK-3398,1 51120U 22005S   22074.91667824 -.00028519  00000-0 -19964-3 0  9995,2 51120  53.2174 357.9845 0003058  17.7271 299.5333 15.73171610  3688,6727.976,91.535,351.899,347.784,0.0
51120.0,STARLINK-3398,PAYLOAD,2022-03-16 04:00:00,15.73144271,0.0003297,53.2175,356.749,18.4258,275.5148,0.00061504,0.00086398,0.0,0 STARLINK-3398,1 51120U 22005S   22075.16667824  .00086398  00000-0  61504-3 0  9997,2 51120  53.2175 356.7490 0003297  18.4258 275.5148 15.73144271 10151,6728.054,91.536,352.13699999999994,347.701,0.0
51120.0,STARLINK-3398,PAYLOAD,2022-03-16 12:00:00,15.73188922,0.0003122,53.2174,355.098,18.8666,3.9565,0.00018609,0.00025566,0.0,0 STARLINK-3398,1 51120U 22005S   22075.50001157  .00025566  00000-0  18609-3 0  9994,2 51120  53.2174 355.0980 0003122  18.8666   3.9565 15.73188922 10203,6727.927,91.534,351.892,347.691,0.0
51120.0,STARLINK-3398,PAYLOAD,2022-03-16 14:00:01,15.73173275,0.0003058999999999,53.2173,354.6853,18.4827,116.5761,0.0005182,0.00072665,0.0,0 STARLINK-3398,1 51120U 22005S   22075.58334491  .00072665  00000-0  51820-3 0  9996,2 51120  53.2173 354.6853 0003059  18.4827 116.5761 15.73173275  3701,6727.971,91.535,351.894,347.778,0.0
51120.0,STARLINK-3398,PAYLOAD,2022-03-16 20:00:01,15.73251549,0.0003016,53.2173,353.4485,20.1448,91.6087,-2.9272e-05,-4.739e-05,0.0,0 STARLINK-3398,1 51120U 22005S   22075.83334491 -.00004739  00000-0 -29272-4 0  9990,2 51120  53.2173 353.4485 0003016  20.1448  91.6087 15.73251549 10254,6727.748000000001,91.53,351.642,347.584,0.0
51120.0,STARLINK-3398,PAYLOAD,2022-03-17 06:00:00,15.73217366,0.000317,53.2168,351.3886,12.7882,300.1951,-0.00015899,-0.00022898,0.0,0 STARLINK-3398,1 51120U 22005S   22076.25001157 -.00022898  00000-0 -15899-3 0  9992,2 51120  53.2168 351.3886 0003170  12.7882 300.1951 15.73217366 10325,6727.846,91.532,351.843,347.57800000000015,0.0
51120.0,STARLINK-3398,PAYLOAD,2022-03-17 14:00:01,15.73153434,0.0002853999999999,53.2169,349.7369,11.6338,30.3093,0.00063825,0.00089747,0.0,0 STARLINK-3398,1 51120U 22005S   22076.58334491  .00089747  00000-0  63825-3 0  9994,2 51120  53.2169 349.7369 0002854  11.6338  30.3093 15.73153434  3691,6728.028,91.536,351.81300000000016,347.973,0.0
51120.0,STARLINK-3398,PAYLOAD,2022-03-17 22:00:00,15.73229189,0.0002961,53.2171,348.0884,13.0724,117.777,0.00012889,0.0001753,0.0,0 STARLINK-3398,1 51120U 22005S   22076.91667824  .00017530  00000-0  12889-3 0  9995,2 51120  53.2171 348.0884 0002961  13.0724 117.7770 15.73229189  3707,6727.812,91.531,351.6690000000001,347.685,0.0
51120.0,STARLINK-3398,PAYLOAD,2022-03-18 06:00:00,15.73255479,0.0003118,53.2168,346.4401,10.1099,209.6873,-0.00026058,-0.0003713,0.0,0 STARLINK-3398,1 51120U 22005S   22077.25001157 -.00037130  00000-0 -26058-3 0  9997,2 51120  53.2168 346.4401 0003118  10.1099 209.6873 15.73255479 10487,6727.736999999999,91.53,351.7,347.504,0.0
51120.0,STARLINK-3398,PAYLOAD,2022-03-18 14:00:01,15.73205726,0.0002898999999999,53.2168,344.7886,10.3865,298.3897,8.0506e-05,0.00010695,0.0,0 STARLINK-3398,1 51120U 22005S   22077.58334491  .00010695  00000-0  80506-4 0  9997,2 51120  53.2168 344.7886 0002899  10.3865 298.3897 15.73205726  3712,6727.879,91.533,351.694,347.793,0.0
